#dP2021  2 13  0  0  0.00000000      96 __u+U ITR00 FIT  IAC
## 2144 518400.00000000   900.00000000 59258 0.0000000000000
+  126   C01C02C03C04C05C06C07C08C09C10C11C12C13C14C16C19C20
+        C21C22C23C24C25C26C27C28C29C30C32C33C34C35C36C37C38
+        C39C40C41C42C43C44C45C46C60E01E02E03E04E05E07E08E09
+        E11E12E13E14E15E18E19E21E24E25E26E27E30E31E33E36G01
+        G02G03G04G05G06G07G08G09G10G11G12G13G14G15G16G17G18
+        G19G20G21G22G23G24G25G26G27G28G29G30G31G32J01J02J03
+        R01R02R03R04R05R06R07R08R09R10R11R12R13R14R15R16R17
+        R18R19R20R21R22R23R24  0  0  0  0  0  0  0  0  0  0
++        13 13 13 13 13  9 10 10  9  9  9  9  9  8  9  8  8
++         8  7  8  8  8  8  8  8  8  8  9  8  8  8  9  9 10
++         9  9  9  9  8  9  9  9  0  5  4  5  4  4  4  5  4
++         4  5  5  4  5  5  4  4  4  4  5  4  5  5  6  4  4
++         4  4  4  4  4  4  4  4  4  4  4  4  3  4  4  3  4
++         4  4  4  4  4  3  4  4  4  4  4  4  4  3  9  9  8
++         6  6  6  6  5 13  5  5  6 13  7  6  6  6  6  6  6
++         6  7  6  6  6 13  6  0  0  0  0  0  0  0  0  0  0
%c M  cc GPS ccc cccc cccc cccc cccc ccccc ccccc ccccc ccccc
%c cc cc ccc ccc cccc cccc cccc cccc ccccc ccccc ccccc ccccc
%f  0.0000000  0.000000000  0.00000000000  0.000000000000000
%f  0.0000000  0.000000000  0.00000000000  0.000000000000000
%i    0    0    0    0      0      0      0      0         0
%i    0    0    0    0      0      0      0      0         0
/* INFORMATION & ANALYSIS CENTER (IAC)            RAPID DATA
/* S/V CLOCKS ARE ALIGNED TO GNSS TIME                      
/* G:C1WC2W R:C1PC2P E:C1XC5X C:C2IC6I J:C1CC2S             
/* PCV:IGS14_2134 OL/AL:FES2004  NONE     YN ORB:CoN CLK:CoN
*  2021 02 13 23 15  0.00000000
PC01 -34320.966790  24470.584991   -193.820478   -714.932610
PC02   4483.106359  41942.298967    937.166895    515.242672
PC03 -14831.288829  39511.780610    177.038667   -459.821853
PC04 -39635.072372  14337.266973   -585.262456   -380.820696
PC05  21858.812674  36045.215972   1291.065321   -751.105316
PC06  -6044.890379  27584.744563  31882.177891     89.369871
PC07 -23336.284955  26691.692145 -22915.356582   -323.829347
PC08 -15844.101850  38050.365622  -7753.561540   -914.555019
PC09   6754.275198  34601.185954  23707.609652    735.191799
PC10  -9170.128932  28202.004714 -29897.934946    -86.939674
PC11 -19043.791970  -5720.157424 -19528.343478   -924.946764
PC12 -17936.113032 -20773.846304  -5053.814740    796.337326
PC13  -6353.819811  40960.073737   7028.386379    140.388250
PC14 -27854.835065   1029.182986  -1818.143312    129.981457
PC16  -3880.270219  28054.109820  31395.718476   -694.957898
PC19  25863.223066  -7329.177335  -7443.618177    726.956820
PC20  25811.673795   4506.906140   9582.522018   -915.374032
PC21 -10328.859932 -14215.947196 -21664.898797   -837.106262
PC22  10877.920806 -15250.877219 -20673.082542   -878.760205
PC23 -11308.965769  25469.967483  -1378.814216   -876.186391
PC24 -15040.523746  -6154.252583  22671.221243   -759.976731
PC25 -18380.754540  14864.754735  14804.074462   -932.512919
PC26  -3759.070423 -21550.566913  17336.745488    948.892944
PC27  12742.151587  24481.043336  -4221.927833    482.902314
PC28  -2227.241752  20335.372636 -18973.698897   -109.828195
PC29  15685.512065  -4913.515973  22548.772338    352.066475
PC30  20701.776789  13886.093112  12569.504591    444.345475
PC32  10392.224406  14177.379047  21687.708703   -894.339350
PC33 -25863.548769   7454.334791   7399.763027   -962.121988
PC34 -20711.777465 -13309.122544 -13117.518863   -740.597496
PC35   1848.753120 -20237.153713  19108.451539   -419.205538
PC36  18759.557382 -14160.012084 -15030.566707   -756.494698
PC37   2639.468920  22091.608124 -16818.842867   -864.921933
PC38 -14567.159017  39124.783472  -5401.839398    129.918222
PC39  -1488.119088  28415.285612  31165.718279     28.441988
PC40 -15859.297243  23220.894118 -31458.109744 999999.999999
PC41 -11108.159988  15294.852533  20573.125584   -930.108915
PC42 -25543.349176  -4889.056523 -10089.437909 999999.999999
PC43 -16042.786828   4464.984880 -22391.260060 999999.999999
PC44 -13390.357726 -24064.395641   4384.257960     37.372700
PC45  11227.602493 -25523.079564   1438.391511    361.509103
PC46  15392.943911   5081.006397 -22717.112220    406.575716
PC60      0.000000      0.000000      0.000000 999999.999999
PE01 -20266.535141  -2580.013053  21411.407725  -1045.587157
PE02  20360.900464   2460.367913 -21356.708395    198.222678
PE03  27385.602932  11219.995968     15.852855   -398.343360
PE04 -24099.754547   3061.632913  16913.206799   -709.281484
PE05  14646.522480  19134.076430  17191.549260   -304.777760
PE07   6506.239022 -15805.322627 -24163.960943   -500.512308
PE08  23861.604132  -3327.924504 -17192.116293   6047.365264
PE09  -6222.213026  15766.577942  24267.991100   5766.281264
PE11  -4568.460204  26371.695916 -12663.019581   6325.616798
PE12 -14681.560045   8892.645974 -24110.114921   5357.434716
PE13   4712.473620 -26143.349677  13060.316426    412.026712
PE14 -13513.205671  15501.654369 -24963.156171  -1329.029006
PE15  14579.908484  -8944.338268  24169.951736    829.434626
PE18   3206.686774 -16007.419829  17580.716819  -1452.837724
PE19 -26693.457305 -12592.798681  -2209.616813    203.152324
PE21  -4022.462080 -17127.841757  23800.890296   -648.317559
PE24 -15671.414137  22104.351356 -11893.935085   -742.245568
PE25   3862.195278  17217.895747 -23761.359413   -526.385720
PE26  -8215.352350 -27712.004005  -6370.245101   2151.240244
PE27  15089.610445 -22232.557447  12435.750504     30.424549
PE30  25406.987826 -13557.431359  -6907.004391   3183.306259
PE31 -25205.806120  14230.102785   6170.775833   -478.265892
PE33 -15847.652705 -13485.029371 -21035.109438   -465.675746
PE36   7923.943526  27944.500488   5733.204983    440.982469
PG01  13302.094502 -13597.152504  18144.908907    761.734814
PG02 -13435.598931 -11200.511996 -19321.013611   -576.575358
PG03  22762.829367 -13240.940370  -3077.800592    -82.308743
PG04  17054.651746  -4674.288315 -19828.263732   -180.030311
PG05 -22670.363046    584.139372 -14126.914602    -33.625781
PG06  -6337.573388 -22718.677313 -12095.698299     -2.896777
PG07   6696.908700 -24522.061121  -6424.242233     57.763433
PG08  21582.580016   1367.157982  15621.553326    -10.216970
PG09   6031.006204 -14363.259454 -21570.831235   -322.630401
PG10   1182.148746  15773.398237  21404.482383    -60.901039
PG11  14883.895078  -5874.359151  20750.238962    -25.382642
PG12 -24762.646370   9327.312376    595.766385     -0.738071
PG13 -22155.776805 -11889.857497   8610.898934     96.916449
PG14   1368.193666 -16449.220351  20797.521601     96.637251
PG15 -21770.245192   1191.199185  15047.981730   -169.596277
PG16  21838.474957   2993.254591 -15386.583443   -279.721165
PG17 -10151.318910 -20103.608826  14512.120999    393.711283
PG18  -5239.005406  25716.923166  -3879.982134    347.146325
PG19 -16425.025482 -19765.839208   6607.288380    -38.854990
PG20 -10208.513808  19606.527283  14471.804979    524.707957
PG21  15393.738922  -4887.756007  21762.983997     95.350142
PG22  24111.642546  -8961.657781   6441.687923   -679.792950
PG23 -10483.188795  18098.954508  16324.028076    118.342574
PG24 -14833.475035   8491.683031  19995.995084      2.363468
PG25 -16513.060576  17080.419449 -11837.660707     79.946559
PG26  13793.589640   9644.485289 -20652.117110     44.504011
PG27  23351.482682  12140.930981   4665.893540    -75.781376
PG28  -1418.802751 -15486.136595  22114.048999    615.943753
PG29  -6915.567882  13183.221119 -22033.522352   -294.450354
PG30   -960.992549 -25960.398448   4973.101777   -384.325890
PG31   8050.320915  20674.988835 -14325.735608    -99.923818
PG32  12433.160938  19574.985310  13196.120389     18.636895
PJ01 -29501.104388  23331.130987  24141.787496   -340.991506
PJ02 -35236.763429  23199.519062   5678.794893      1.859081
PJ03 -20787.419922  21320.693972 -25235.967397     -0.703582
PR01  22752.604625  -3357.806465 -11019.527507     74.958858
PR02   4429.812413 -10349.146057 -22854.402875    466.911443
PR03 -14438.095715 -10282.158806 -18278.031248     30.781171
PR04 -24891.587697  -4330.120656  -3456.223308     73.923198
PR05 -21394.661849   3901.256436  13320.559643     66.467975
PR06  -3007.210100  10818.842113  22892.014560    192.698719
PR07  15058.270628  10201.443312  17941.832133    -42.431206
PR08  24897.806293   4383.173022   3537.717275    -57.374497
PR09 -10280.879396  21738.756222  -8593.446858    -21.874986
PR10   1857.945448  14582.765405 -20837.780324    -66.340996
PR11  13498.982403  -1490.076745 -21583.576307      3.403135
PR12  17240.237151 -16479.550496  -9065.557656    204.782200
PR13  10592.143932 -21720.157382   8155.784892    -50.683317
PR14  -2496.966977 -13998.284472  21180.964827     60.967888
PR15 -13795.022362   1574.029171  21410.302673    105.419156
PR16 -16760.186641  17282.373210   8198.289236    -11.285705
PR17 -11058.549494 -22915.742059  -2024.124550    399.844617
PR18 -13890.979209 -12582.355565 -17252.496220     66.558581
PR19  -9796.931213   3400.515402 -23298.900301   -131.927829
PR20    972.022745  20487.605681 -15184.357424   -433.321845
PR21  11405.611697  22574.309716   3235.769308   -187.507181
PR22  13765.306510  11767.275282  18004.422337    -97.734837
PR23   6185.072203 -10830.902400  22247.617400    365.862723
PR24  -1357.870168 -20934.320683  14539.811573     31.438578
EOF
